CCSDS_OMM_VERS = 2.0
CREATION_DATE  = 
ORIGINATOR     = 

OBJECT_NAME    = SL-3 R/B
OBJECT_ID      = 1988-032B
CENTER_NAME    = EARTH
REF_FRAME      = TEME
TIME_SYSTEM    = UTC
MEAN_ELEMENT_THEORY = SGP/SGP4

EPOCH          = 2026-03-30T04:56:28.032000
MEAN_MOTION    = 15.20135128
ECCENTRICITY   = .00265203
INCLINATION    = 97.5210
RA_OF_ASC_NODE = 72.3907
ARG_OF_PERICENTER = 158.5126
MEAN_ANOMALY   = 201.7228

EPHEMERIS_TYPE = 0
CLASSIFICATION_TYPE = U
NORAD_CAT_ID   = 19046
ELEMENT_SET_NO = 999
REV_AT_EPOCH   = 5522
BSTAR          = .29573925E-3
MEAN_MOTION_DOT = .6384E-4
MEAN_MOTION_DDOT = 0

CCSDS_OMM_VERS = 2.0
CREATION_DATE  = 
ORIGINATOR     = 

OBJECT_NAME    = SL-16 R/B
OBJECT_ID      = 1988-039B
CENTER_NAME    = EARTH
REF_FRAME      = TEME
TIME_SYSTEM    = UTC
MEAN_ELEMENT_THEORY = SGP/SGP4

EPOCH          = 2026-03-30T04:52:25.230720
MEAN_MOTION    = 14.19619616
ECCENTRICITY   = .0023689
INCLINATION    = 71.0170
RA_OF_ASC_NODE = 25.1710
ARG_OF_PERICENTER = 304.9815
MEAN_ANOMALY   = 54.9085

EPHEMERIS_TYPE = 0
CLASSIFICATION_TYPE = U
NORAD_CAT_ID   = 19120
ELEMENT_SET_NO = 999
REV_AT_EPOCH   = 96129
BSTAR          = .95021868E-4
MEAN_MOTION_DOT = .153E-5
MEAN_MOTION_DDOT = 0

CCSDS_OMM_VERS = 2.0
CREATION_DATE  = 
ORIGINATOR     = 

OBJECT_NAME    = COSMOS 1953
OBJECT_ID      = 1988-050A
CENTER_NAME    = EARTH
REF_FRAME      = TEME
TIME_SYSTEM    = UTC
MEAN_ELEMENT_THEORY = SGP/SGP4

EPOCH          = 2026-03-30T02:43:59.216448
MEAN_MOTION    = 15.28841804
ECCENTRICITY   = .00122601
INCLINATION    = 82.5080
RA_OF_ASC_NODE = 137.7015
ARG_OF_PERICENTER = 58.8857
MEAN_ANOMALY   = 301.3583

EPHEMERIS_TYPE = 0
CLASSIFICATION_TYPE = U
NORAD_CAT_ID   = 19210
ELEMENT_SET_NO = 999
REV_AT_EPOCH   = 4090
BSTAR          = .31782182E-3
MEAN_MOTION_DOT = .8958E-4
MEAN_MOTION_DDOT = 0

CCSDS_OMM_VERS = 2.0
CREATION_DATE  = 
ORIGINATOR     = 

OBJECT_NAME    = SL-8 R/B
OBJECT_ID      = 1988-053B
CENTER_NAME    = EARTH
REF_FRAME      = TEME
TIME_SYSTEM    = UTC
MEAN_ELEMENT_THEORY = SGP/SGP4

EPOCH          = 2026-03-30T05:50:42.884160
MEAN_MOTION    = 14.38930576
ECCENTRICITY   = .00214485
INCLINATION    = 74.0458
RA_OF_ASC_NODE = 74.5754
ARG_OF_PERICENTER = 251.1125
MEAN_ANOMALY   = 210.4207

EPHEMERIS_TYPE = 0
CLASSIFICATION_TYPE = U
NORAD_CAT_ID   = 19257
ELEMENT_SET_NO = 999
REV_AT_EPOCH   = 97955
BSTAR          = .144911E-3
MEAN_MOTION_DOT = .421E-5
MEAN_MOTION_DDOT = 0

CCSDS_OMM_VERS = 2.0
CREATION_DATE  = 
ORIGINATOR     = 

OBJECT_NAME    = COSMOS 1975
OBJECT_ID      = 1988-093A
CENTER_NAME    = EARTH
REF_FRAME      = TEME
TIME_SYSTEM    = UTC
MEAN_ELEMENT_THEORY = SGP/SGP4

EPOCH          = 2026-03-30T06:50:22.981344
MEAN_MOTION    = 15.28353066
ECCENTRICITY   = .00133892
INCLINATION    = 82.5158
RA_OF_ASC_NODE = 97.0012
ARG_OF_PERICENTER = 98.0897
MEAN_ANOMALY   = 262.1862

EPHEMERIS_TYPE = 0
CLASSIFICATION_TYPE = U
NORAD_CAT_ID   = 19573
ELEMENT_SET_NO = 999
REV_AT_EPOCH   = 2255
BSTAR          = .34221308E-3
MEAN_MOTION_DOT = .9505E-4
MEAN_MOTION_DDOT = 0

CCSDS_OMM_VERS = 2.0
CREATION_DATE  = 
ORIGINATOR     = 

OBJECT_NAME    = SL-14 R/B
OBJECT_ID      = 1988-093B
CENTER_NAME    = EARTH
REF_FRAME      = TEME
TIME_SYSTEM    = UTC
MEAN_ELEMENT_THEORY = SGP/SGP4

EPOCH          = 2026-03-30T05:08:55.157856
MEAN_MOTION    = 14.85681207
ECCENTRICITY   = .00199952
INCLINATION    = 82.5340
RA_OF_ASC_NODE = 22.7797
ARG_OF_PERICENTER = 334.3417
MEAN_ANOMALY   = 140.7184

EPHEMERIS_TYPE = 0
CLASSIFICATION_TYPE = U
NORAD_CAT_ID   = 19574
ELEMENT_SET_NO = 999
REV_AT_EPOCH   = 406
BSTAR          = .75331079E-4
MEAN_MOTION_DOT = .679E-5
MEAN_MOTION_DDOT = 0

CCSDS_OMM_VERS = 2.0
CREATION_DATE  = 
ORIGINATOR     = 

OBJECT_NAME    = SL-16 R/B
OBJECT_ID      = 1988-102B
CENTER_NAME    = EARTH
REF_FRAME      = TEME
TIME_SYSTEM    = UTC
MEAN_ELEMENT_THEORY = SGP/SGP4

EPOCH          = 2026-03-30T05:56:45.311424
MEAN_MOTION    = 14.16153507
ECCENTRICITY   = .00151837
INCLINATION    = 70.9970
RA_OF_ASC_NODE = 108.2404
ARG_OF_PERICENTER = 331.0482
MEAN_ANOMALY   = 28.9797

EPHEMERIS_TYPE = 0
CLASSIFICATION_TYPE = U
NORAD_CAT_ID   = 19650
ELEMENT_SET_NO = 999
REV_AT_EPOCH   = 92980
BSTAR          = .9236122E-5
MEAN_MOTION_DOT = -.3E-6
MEAN_MOTION_DDOT = 0

CCSDS_OMM_VERS = 2.0
CREATION_DATE  = 
ORIGINATOR     = 

OBJECT_NAME    = INTERCOSMOS 24
OBJECT_ID      = 1989-080A
CENTER_NAME    = EARTH
REF_FRAME      = TEME
TIME_SYSTEM    = UTC
MEAN_ELEMENT_THEORY = SGP/SGP4

EPOCH          = 2026-03-30T07:06:17.093952
MEAN_MOTION    = 12.59584531
ECCENTRICITY   = .11868944
INCLINATION    = 82.6012
RA_OF_ASC_NODE = 90.9811
ARG_OF_PERICENTER = 244.9480
MEAN_ANOMALY   = 102.3938

EPHEMERIS_TYPE = 0
CLASSIFICATION_TYPE = U
NORAD_CAT_ID   = 20261
ELEMENT_SET_NO = 999
REV_AT_EPOCH   = 66939
BSTAR          = .18697514E-3
MEAN_MOTION_DOT = .632E-5
MEAN_MOTION_DDOT = 0

CCSDS_OMM_VERS = 2.0
CREATION_DATE  = 
ORIGINATOR     = 

OBJECT_NAME    = SL-14 R/B
OBJECT_ID      = 1989-080C
CENTER_NAME    = EARTH
REF_FRAME      = TEME
TIME_SYSTEM    = UTC
MEAN_ELEMENT_THEORY = SGP/SGP4

EPOCH          = 2026-03-30T04:48:46.789920
MEAN_MOTION    = 12.50513554
ECCENTRICITY   = .12308971
INCLINATION    = 82.5953
RA_OF_ASC_NODE = 160.0249
ARG_OF_PERICENTER = 137.8897
MEAN_ANOMALY   = 232.3730

EPHEMERIS_TYPE = 0
CLASSIFICATION_TYPE = U
NORAD_CAT_ID   = 20262
ELEMENT_SET_NO = 999
REV_AT_EPOCH   = 66271
BSTAR          = .1250114E-3
MEAN_MOTION_DOT = .444E-5
MEAN_MOTION_DDOT = 0

CCSDS_OMM_VERS = 2.0
CREATION_DATE  = 
ORIGINATOR     = 

OBJECT_NAME    = DELTA 1 R/B
OBJECT_ID      = 1989-089B
CENTER_NAME    = EARTH
REF_FRAME      = TEME
TIME_SYSTEM    = UTC
MEAN_ELEMENT_THEORY = SGP/SGP4

EPOCH          = 2026-03-30T04:12:42.087168
MEAN_MOTION    = 14.50680034
ECCENTRICITY   = .0070441
INCLINATION    = 97.0690
RA_OF_ASC_NODE = 293.3532
ARG_OF_PERICENTER = 58.5324
MEAN_ANOMALY   = 302.2734

EPHEMERIS_TYPE = 0
CLASSIFICATION_TYPE = U
NORAD_CAT_ID   = 20323
ELEMENT_SET_NO = 999
REV_AT_EPOCH   = 89870
BSTAR          = .1165E-3
MEAN_MOTION_DOT = .437E-5
MEAN_MOTION_DDOT = 0

CCSDS_OMM_VERS = 2.0
CREATION_DATE  = 
ORIGINATOR     = 

OBJECT_NAME    = ARIANE 40 R/B
OBJECT_ID      = 1990-005H
CENTER_NAME    = EARTH
REF_FRAME      = TEME
TIME_SYSTEM    = UTC
MEAN_ELEMENT_THEORY = SGP/SGP4

EPOCH          = 2026-03-30T02:30:58.512096
MEAN_MOTION    = 14.39883924
ECCENTRICITY   = .00110452
INCLINATION    = 98.3040
RA_OF_ASC_NODE = 149.1538
ARG_OF_PERICENTER = 139.0310
MEAN_ANOMALY   = 221.1711

EPHEMERIS_TYPE = 0
CLASSIFICATION_TYPE = U
NORAD_CAT_ID   = 20443
ELEMENT_SET_NO = 999
REV_AT_EPOCH   = 89574
BSTAR          = .11852018E-3
MEAN_MOTION_DOT = .33E-5
MEAN_MOTION_DDOT = 0

CCSDS_OMM_VERS = 2.0
CREATION_DATE  = 
ORIGINATOR     = 

OBJECT_NAME    = DELTA 2 R/B(1)
OBJECT_ID      = 1990-008B
CENTER_NAME    = EARTH
REF_FRAME      = TEME
TIME_SYSTEM    = UTC
MEAN_ELEMENT_THEORY = SGP/SGP4

EPOCH          = 2026-03-30T05:02:14.306784
MEAN_MOTION    = 15.58726661
ECCENTRICITY   = .00773809
INCLINATION    = 35.6037
RA_OF_ASC_NODE = 39.9125
ARG_OF_PERICENTER = 91.1577
MEAN_ANOMALY   = 269.8026

EPHEMERIS_TYPE = 0
CLASSIFICATION_TYPE = U
NORAD_CAT_ID   = 20453
ELEMENT_SET_NO = 999
REV_AT_EPOCH   = 92933
BSTAR          = .91955522E-3
MEAN_MOTION_DOT = .85338E-3
MEAN_MOTION_DDOT = 0

